HULIANWANG DIGUI-119    
1 67059U 25295A   26085.45916808 -.00000092  00000+0  68798-4 0  9995
2 67059  50.0048 322.4948 0000058 118.9655 241.1223 13.29322467 14498
HULIANWANG DIGUI-120    
1 67060U 25295B   26085.44245920 -.00000067  00000+0  12197-3 0  9999
2 67060  50.0054 322.4129 0000023 169.9679 190.1194 13.29322557 14492
HULIANWANG DIGUI-121    
1 67061U 25295C   26085.45081655 -.00000075  00000+0  10666-3 0  9992
2 67061  50.0015 322.4151 0000037 122.2255 237.8621 13.29322401 14494
HULIANWANG DIGUI-122    
1 67062U 25295D   26085.50929385 -.00000104  00000+0  43565-4 0  9998
2 67062  50.0048 322.0946 0000043 118.1677 241.9199 13.29323880 14508
HULIANWANG DIGUI-123    
1 67063U 25295E   26085.50094055 -.00000070  00000+0  11661-3 0  9999
2 67063  50.0048 322.0544 0000052 114.2917 245.7961 13.29323335 14501
HULIANWANG DIGUI-124    
1 67064U 25295F   26085.49258250 -.00000050  00000+0  15886-3 0  9998
2 67064  50.0009 321.9657 0000020 116.6600 243.4274 13.29320887 14503
HULIANWANG DIGUI-125    
1 67065U 25295G   26085.48422193 -.00000055  00000+0  14866-3 0  9999
2 67065  49.9999 321.9129 0000065 101.8801 258.2078 13.29321467 14502
HULIANWANG DIGUI-126    
1 67066U 25295H   26085.47586980 -.00000057  00000+0  14478-3 0  9995
2 67066  50.0004 321.8705 0000100 158.2273 201.8603 13.29322611 14501
HULIANWANG DIGUI-127    
1 67067U 25295J   26085.46752119 -.00000061  00000+0  13580-3 0  9992
2 67067  50.0022 321.8468 0000056 126.3740 233.7137 13.29322774 14509
HULIANWANG DIGUI-128    
1 67236U 25311A   26085.33909877 -.00000081  00000+0  92834-4 0  9992
2 67236  50.0093  52.6569 0000266  35.9312 324.1578 13.29332008 12322
HULIANWANG DIGUI-129    
1 67237U 25311B   26085.27227452 -.00000086  00000+0  82072-4 0  9996
2 67237  50.0086  52.9604 0000255  32.6360 327.4528 13.29331763 12310
HULIANWANG DIGUI-130    
1 67238U 25311C   26085.39757469 -.00000085  00000+0  83553-4 0  9990
2 67238  50.0063  52.9280 0000308  31.6878 328.4012 13.29332219 12325
HULIANWANG DIGUI-131    
1 67239U 25311D   26085.33074969 -.00000079  00000+0  97130-4 0  9991
2 67239  50.0059  53.2366 0000291  33.6508 326.4383 13.29332157 12312
HULIANWANG DIGUI-132    
1 67240U 25311E   26085.08015642 -.00000091  00000+0  71295-4 0  9996
2 67240  50.0070  53.9275 0000292  31.5564 328.5325 13.29332102 12288
HULIANWANG DIGUI-133    
1 67241U 25311F   26085.36416262 -.00000088  00000+0  77109-4 0  9997
2 67241  50.0113  52.8004 0000261  37.4229 322.6661 13.29331965 12323
HULIANWANG DIGUI-134    
1 67242U 25311G   26085.29732954 -.00000084  00000+0  86611-4 0  9993
2 67242  50.0042  53.0556 0000276  34.8806 325.2084 13.29332125 12314
HULIANWANG DIGUI-135    
1 67243U 25311H   26085.31403958 -.00000091  00000+0  71414-4 0  9999
2 67243  50.0028  53.1290 0000309  34.8259 325.2633 13.29332135 12315
HULIANWANG DIGUI-136    
1 67244U 25311J   26085.35580482 -.00000086  00000+0  81317-4 0  9999
2 67244  50.0099  52.7477 0000265  34.2366 325.8523 13.29332284 12320
HULIANWANG DIGUI-137    
1 67435U 26007A   26085.23294211 -.00000083  00000+0  88124-4 0  9993
2 67435  50.0100  23.3419 0000179  79.4595 280.6297 13.29326950  9756
HULIANWANG DIGUI-138    
1 67436U 26007B   26085.24964597 -.00000072  00000+0  11119-3 0  9993
2 67436  50.0085  23.4140 0000160  66.4974 293.5915 13.29328846  9754
HULIANWANG DIGUI-139    
1 67437U 26007C   26085.24128475 -.00000068  00000+0  12152-3 0  9994
2 67437  50.0048  23.3519 0000183  68.1034 291.9857 13.29328745  9759
HULIANWANG DIGUI-140    
1 67438U 26007D   26085.25799400 -.00000066  00000+0  12455-3 0  9992
2 67438  50.0076  23.4532 0000169  70.1809 289.9081 13.29327744  9758
HULIANWANG DIGUI-141    
1 67439U 26007E   26085.22458060 -.00000079  00000+0  98057-4 0  9991
2 67439  50.0066  23.2775 0000169  76.7304 283.3587 13.29327203  9756
HULIANWANG DIGUI-142    
1 67440U 26007F   26085.06586241 -.00000068  00000+0  12146-3 0  9990
2 67440  50.0143  23.8246 0000134  75.9833 284.1054 13.29328298  9734
HULIANWANG DIGUI-143    
1 67441U 26007G   26085.50857438 -.00000082  00000+0  91559-4 0  9991
2 67441  50.0128  22.1516 0000178  36.7715 323.3169 13.29329042  9799
HULIANWANG DIGUI-144    
1 67442U 26007H   26085.50024047 -.00000085  00000+0  83976-4 0  9991
2 67442  50.0122  22.1024 0000141  78.5337 281.5551 13.29327085  9797
HULIANWANG DIGUI-145    
1 67443U 26007J   26085.26634368 -.00000081  00000+0  92997-4 0  9997
2 67443  50.0115  22.8702 0000191  67.6959 292.3934 13.29327503  9761
GUOWANG GROUP 20 OBJECT*
1 68129U 26047A   26083.47132621 -.00000112  00000+0  25605-4 0  9996
2 68129  50.0057  10.2567 0000455 280.6416  79.4436 14.00120126  1648
GUOWANG GROUP 20 OBJECT*
1 68130U 26047B   26083.46957175 -.00000077  00000+0  49172-4 0  9991
2 68130  50.0060  10.2480 0000229 293.0264  67.0614 14.00458019  1631
GUOWANG GROUP 20 OBJECT*
1 68131U 26047C   26082.89746215 -.00000117  00000+0  22265-4 0  9998
2 68131  50.0005  12.5340 0001695 156.1490 203.9492 14.00819949  1569
GUOWANG GROUP 20 OBJECT*
1 68132U 26047D   26083.60809546 -.00000105  00000+0  30365-4 0  9993
2 68132  50.0037   9.6473 0000221  23.0477 337.0436 14.01110084  1652
GUOWANG GROUP 20 OBJECT*
1 68133U 26047E   26081.32743227 -.00000117  00000+0  21599-4 0  9996
2 68133  50.0037  18.9087 0001845 286.6306  73.4395 14.03282701  1347
GUOWANG GROUP 20 OBJECT*
1 68134U 26047F   26081.53908163 -.00000024  00000+0  80292-4 0  9994
2 68134  50.0098  18.0376 0001549 290.5042  69.5697 14.03853988  1363
GUOWANG GROUP 20 OBJECT*
1 68135U 26047G   26081.61110949  .00000032  00000+0  11611-3 0  9997
2 68135  50.0130  17.7516 0002378 303.3923  56.6754 14.03554926  1388
GUOWANG GROUP 20 OBJECT*
1 68136U 26047H   26082.89133300 -.00000102  00000+0  31573-4 0  9994
2 68136  50.0075  12.5331 0001735 306.0179  54.0564 14.02326786  1554
GUOWANG GROUP 20 OBJECT*
1 68137U 26047J   26082.88983446 -.00000137  00000+0  91454-5 0  9991
2 68137  50.0081  12.5219 0000175 124.6965 235.3956 14.02259904  1568
